[{"OBJECT_NAME":"TEVEL2-9","OBJECT_ID":"2025-052AD","EPOCH":"2026-03-09T16:51:18.321696","MEAN_MOTION":15.28633834,"ECCENTRICITY":0.000799,"INCLINATION":97.4057,"RA_OF_ASC_NODE":324.3929,"ARG_OF_PERICENTER":124.2475,"MEAN_ANOMALY":235.9522,"EPHEMERIS_TYPE":0,"CLASSIFICATION_TYPE":"U","NORAD_CAT_ID":63237,"ELEMENT_SET_NO":999,"REV_AT_EPOCH":5481,"BSTAR":0.00067240159,"MEAN_MOTION_DOT":0.00018694,"MEAN_MOTION_DDOT":0},{"OBJECT_NAME":"STARLINK-33755","OBJECT_ID":"2025-076L","EPOCH":"2026-03-09T23:14:14.599392","MEAN_MOTION":15.27596845,"ECCENTRICITY":0.00012433,"INCLINATION":43.0016,"RA_OF_ASC_NODE":319.988,"ARG_OF_PERICENTER":266.7952,"MEAN_ANOMALY":93.2757,"EPHEMERIS_TYPE":0,"CLASSIFICATION_TYPE":"U","NORAD_CAT_ID":63579,"ELEMENT_SET_NO":999,"REV_AT_EPOCH":5187,"BSTAR":0.0010946971,"MEAN_MOTION_DOT":0.0003,"MEAN_MOTION_DDOT":0}]
